OBJECT_NAME,OBJECT_ID,EPOCH,MEAN_MOTION,ECCENTRICITY,INCLINATION,RA_OF_ASC_NODE,ARG_OF_PERICENTER,MEAN_ANOMALY,EPHEMERIS_TYPE,CLASSIFICATION_TYPE,NORAD_CAT_ID,ELEMENT_SET_NO,REV_AT_EPOCH,BSTAR,MEAN_MOTION_DOT,MEAN_MOTION_DDOT
SAR-LUPE 2,2007-030A,2026-06-24T06:02:28.428288,15.51078243,.00030295,98.1043,280.5639,157.7079,202.4303,0,U,31797,999,5803,.57334146E-3,.3337E-3,0
SAPPHIRE,2013-009C,2026-06-24T06:32:48.234336,14.35242267,.00103335,98.4264,354.5603,223.4394,136.5979,0,U,39088,999,69759,.47994657E-4,.94E-6,0
PRAETORIAN SDA_602,2025-203A,2026-06-24T00:50:32.286624,13.84278521,.00061785,81.3030,4.4250,167.1821,192.9494,0,U,65565,999,3964,.72909014E-4,.93E-6,0
PRAETORIAN SDA_603,2025-203B,2026-06-24T06:43:59.920896,13.83934358,.00109842,81.3075,4.1124,174.3280,185.8003,0,U,65566,999,3968,-.45964167E-2,-.5086E-4,0
PRAETORIAN SDA_604,2025-203C,2026-06-24T05:34:31.243584,13.83048014,.00056711,81.3053,4.5864,172.0546,188.0701,0,U,65567,999,3965,.42075235E-4,.58E-6,0
PRAETORIAN SDA_605,2025-203D,2026-06-24T06:25:54.881184,13.83434742,.00084774,81.3019,4.2095,163.9757,196.1669,0,U,65568,999,3967,.43178635E-4,.59E-6,0
PRAETORIAN SDA_606,2025-203E,2026-06-24T00:50:04.069248,13.83198456,.00063375,81.3052,4.6521,167.2048,192.9270,0,U,65569,999,3963,.38037602E-4,.54E-6,0
PRAETORIAN SDA_607,2025-203F,2026-06-24T06:06:06.560640,13.84284697,.00090796,81.3036,4.0993,167.8465,192.2912,0,U,65570,999,3968,.12907763E-3,.156E-5,0
PRAETORIAN SDA_608,2025-203G,2026-06-24T05:36:59.741856,13.83817166,.0006168,81.3006,4.2826,171.4720,188.6543,0,U,65571,999,3966,.19896744E-4,.34E-6,0
PRAETORIAN SDA_609,2025-203H,2026-06-24T05:41:11.289408,13.84209112,.00070614,81.3051,4.2612,165.8016,194.3340,0,U,65572,999,3967,.16266628E-3,.193E-5,0
PRAETORIAN SDA_610,2025-203J,2026-06-24T06:52:17.576256,13.83768035,.00069443,81.3007,4.1928,170.9615,189.1668,0,U,65573,999,3967,.47597616E-4,.65E-6,0
PRAETORIAN SDA_611,2025-203K,2026-06-24T05:12:40.692096,13.83310273,.00057497,81.3013,4.4277,175.2945,184.8266,0,U,65574,999,3965,.2579252E-3,.295E-5,0
PRAETORIAN SDA_612,2025-203L,2026-06-24T01:17:02.440608,13.85040042,.00095185,81.3031,4.1480,168.4070,191.7308,0,U,65575,999,3966,.14164955E-3,.172E-5,0
PRAETORIAN SDA_613,2025-203M,2026-06-24T05:26:22.331040,13.82765610,.00059559,81.2999,4.4211,164.9088,195.2246,0,U,65576,999,3965,.4285656E-4,.58E-6,0
PRAETORIAN SDA_614,2025-203N,2026-06-24T06:15:27.271584,13.84777772,.00074193,81.3014,4.0357,164.5347,195.6038,0,U,65577,999,3969,.45042353E-4,.63E-6,0
PRAETORIAN SDA_615,2025-203P,2026-06-24T05:44:40.930368,13.84436969,.00092786,81.3020,4.0238,166.1398,194.0016,0,U,65578,999,3968,.79760302E-4,.101E-5,0
PRAETORIAN SDA_616,2025-203Q,2026-06-24T05:11:51.002592,13.83267986,.00056451,81.3058,4.5781,172.4352,187.6890,0,U,65579,999,3965,.13424915E-3,.159E-5,0
PRAETORIAN SDA_617,2025-203R,2026-06-24T05:43:49.334016,13.83150294,.00076785,81.3036,4.3879,165.1176,195.0207,0,U,65580,999,3966,.2381496E-4,.38E-6,0
PRAETORIAN SDA_618,2025-203S,2026-06-24T06:38:08.281536,13.84670037,.00099878,81.3023,3.9166,168.2715,191.8677,0,U,65581,999,3969,.15101341E-3,.182E-5,0
PRAETORIAN SDA_619,2025-203T,2026-06-24T00:39:47.994048,13.83805792,.00082852,81.3052,4.4538,166.4186,193.7195,0,U,65582,999,4027,.11123231E-3,.135E-5,0
PRAETORIAN SDA_620,2025-203U,2026-06-24T06:33:49.948128,13.83618458,.00079692,81.3030,4.2491,162.0822,198.0617,0,U,65583,999,3967,.13857146E-3,.165E-5,0
PRAETORIAN SDA_621,2025-203V,2026-06-24T05:54:44.153568,13.83801784,.00077495,81.3020,4.1897,159.8858,200.2606,0,U,65584,999,3967,.43080621E-4,.6E-6,0
PRAETORIAN SDA_601,2025-203W,2026-06-24T05:17:05.807040,13.83167950,.00056228,81.3043,4.5188,175.9129,184.2074,0,U,65585,999,3965,-.16086557E-3,-.164E-5,0
VICTUS HAZE PUMA,2026-142A,2026-06-24T07:43:27.204960,15.20697073,.00212132,97.4482,72.8649,302.5100,57.4085,0,U,69646,999,75,.16349016E-3,.3543E-4,0
