SAR-LUPE 2              
1 31797U 07030A   26175.25171792  .00033370  00000+0  57334-3 0  9992
2 31797  98.1043 280.5639 0003029 157.7079 202.4303 15.51078243 58033
SAPPHIRE                
1 39088U 13009C   26175.27278049  .00000094  00000+0  47995-4 0  9991
2 39088  98.4264 354.5603 0010333 223.4394 136.5979 14.35242267697598
PRAETORIAN SDA_602      
1 65565U 25203A   26175.03509591  .00000093  00000+0  72909-4 0  9994
2 65565  81.3030   4.4250 0006178 167.1821 192.9494 13.84278521 39648
PRAETORIAN SDA_603      
1 65566U 25203B   26175.28055464 -.00005086  00000+0 -45964-2 0  9995
2 65566  81.3075   4.1124 0010984 174.3280 185.8003 13.83934358 39681
PRAETORIAN SDA_604      
1 65567U 25203C   26175.23230606  .00000058  00000+0  42075-4 0  9998
2 65567  81.3053   4.5864 0005671 172.0546 188.0701 13.83048014 39652
PRAETORIAN SDA_605      
1 65568U 25203D   26175.26799631  .00000059  00000+0  43179-4 0  9997
2 65568  81.3019   4.2095 0008477 163.9757 196.1669 13.83434742 39670
PRAETORIAN SDA_606      
1 65569U 25203E   26175.03476932  .00000054  00000+0  38038-4 0  9992
2 65569  81.3052   4.6521 0006337 167.2048 192.9270 13.83198456 39636
PRAETORIAN SDA_607      
1 65570U 25203F   26175.25424260  .00000156  00000+0  12908-3 0  9995
2 65570  81.3036   4.0993 0009079 167.8465 192.2912 13.84284697 39687
PRAETORIAN SDA_608      
1 65571U 25203G   26175.23402479  .00000034  00000+0  19897-4 0  9992
2 65571  81.3006   4.2826 0006168 171.4720 188.6543 13.83817166 39662
PRAETORIAN SDA_609      
1 65572U 25203H   26175.23693622  .00000193  00000+0  16267-3 0  9998
2 65572  81.3051   4.2612 0007061 165.8016 194.3340 13.84209112 39671
PRAETORIAN SDA_610      
1 65573U 25203J   26175.28631454  .00000065  00000+0  47598-4 0  9999
2 65573  81.3007   4.1928 0006944 170.9615 189.1668 13.83768035 39671
PRAETORIAN SDA_611      
1 65574U 25203K   26175.21713764  .00000295  00000+0  25793-3 0  9995
2 65574  81.3013   4.4277 0005749 175.2945 184.8266 13.83310273 39656
PRAETORIAN SDA_612      
1 65575U 25203L   26175.05350047  .00000172  00000+0  14165-3 0  9994
2 65575  81.3031   4.1480 0009518 168.4070 191.7308 13.85040042 39662
PRAETORIAN SDA_613      
1 65576U 25203M   26175.22664735  .00000058  00000+0  42857-4 0  9999
2 65576  81.2999   4.4211 0005955 164.9088 195.2246 13.82765610 39652
PRAETORIAN SDA_614      
1 65577U 25203N   26175.26073231  .00000063  00000+0  45042-4 0  9994
2 65577  81.3014   4.0357 0007419 164.5347 195.6038 13.84777772 39691
PRAETORIAN SDA_615      
1 65578U 25203P   26175.23936262  .00000101  00000+0  79760-4 0  9991
2 65578  81.3020   4.0238 0009278 166.1398 194.0016 13.84436969 39684
PRAETORIAN SDA_616      
1 65579U 25203Q   26175.21656253  .00000159  00000+0  13425-3 0  9997
2 65579  81.3058   4.5781 0005645 172.4352 187.6890 13.83267986 39653
PRAETORIAN SDA_617      
1 65580U 25203R   26175.23876544  .00000038  00000+0  23815-4 0  9999
2 65580  81.3036   4.3879 0007678 165.1176 195.0207 13.83150294 39667
PRAETORIAN SDA_618      
1 65581U 25203S   26175.27648474  .00000182  00000+0  15101-3 0  9991
2 65581  81.3023   3.9166 0009987 168.2715 191.8677 13.84670037 39697
PRAETORIAN SDA_619      
1 65582U 25203T   26175.02763882  .00000135  00000+0  11123-3 0  9994
2 65582  81.3052   4.4538 0008285 166.4186 193.7195 13.83805792 40270
PRAETORIAN SDA_620      
1 65583U 25203U   26175.27349477  .00000165  00000+0  13857-3 0  9991
2 65583  81.3030   4.2491 0007969 162.0822 198.0617 13.83618458 39670
PRAETORIAN SDA_621      
1 65584U 25203V   26175.24634437  .00000060  00000+0  43081-4 0  9999
2 65584  81.3020   4.1897 0007749 159.8858 200.2606 13.83801784 39678
PRAETORIAN SDA_601      
1 65585U 25203W   26175.22020610 -.00000164  00000+0 -16087-3 0  9992
2 65585  81.3043   4.5188 0005622 175.9129 184.2074 13.83167950 39657
VICTUS HAZE PUMA        
1 69646U 26142A   26175.32184265  .00003543  00000+0  16349-3 0  9998
2 69646  97.4482  72.8649 0021213 302.5100  57.4085 15.20697073   754
